{
    "links": {
        "self": "http://www.neowsapp.com/rest/v1/neo/3843157?api_key=iIulBulltgU6a56xZRHN4H3l9WmuAYTsLGpBGhQ2"
    },
    "id": "3843157",
    "neo_reference_id": "3843157",
    "name": "(2019 NA3)",
    "designation": "2019 NA3",
    "nasa_jpl_url": "http://ssd.jpl.nasa.gov/sbdb.cgi?sstr=3843157",
    "absolute_magnitude_h": 24.7,
    "estimated_diameter": {
        "kilometers": {
            "estimated_diameter_min": 0.0305179233,
            "estimated_diameter_max": 0.0682401509
        },
        "meters": {
            "estimated_diameter_min": 30.5179232594,
            "estimated_diameter_max": 68.2401509401
        },
        "miles": {
            "estimated_diameter_min": 0.0189629525,
            "estimated_diameter_max": 0.0424024508
        },
        "feet": {
            "estimated_diameter_min": 100.1244233463,
            "estimated_diameter_max": 223.8850168104
        }
    },
    "is_potentially_hazardous_asteroid": false,
    "close_approach_data": [
        {
            "close_approach_date": "2019-06-29",
            "close_approach_date_full": "2019-Jun-29 03:52",
            "epoch_date_close_approach": 1561780320000,
            "relative_velocity": {
                "kilometers_per_second": "5.4068098537",
                "kilometers_per_hour": "19464.5154732534",
                "miles_per_hour": "12094.4929617001"
            },
            "miss_distance": {
                "astronomical": "0.1464713331",
                "lunar": "56.9773485759",
                "kilometers": "21911799.447820497",
                "miles": "13615360.8242049786"
            },
            "orbiting_body": "Earth"
        }
    ],
    "orbital_data": {
        "orbit_id": "1",
        "orbit_determination_date": "2019-07-06 07:42:18",
        "first_observation_date": "2019-07-03",
        "last_observation_date": "2019-07-06",
        "data_arc_in_days": 3,
        "observations_used": 13,
        "orbit_uncertainty": "8",
        "minimum_orbit_intersection": ".146015",
        "jupiter_tisserand_invariant": "3.573",
        "epoch_osculation": "2458668.5",
        "eccentricity": ".455165476669196",
        "semi_major_axis": "2.132418311310578",
        "inclination": "6.549096082639821",
        "ascending_node_longitude": "90.632386573568",
        "orbital_period": "1137.383782882059",
        "perihelion_distance": "1.161815114184777",
        "perihelion_argument": "188.3927618157695",
        "aphelion_distance": "3.103021508436379",
        "perihelion_time": "2458665.249696941456",
        "mean_anomaly": "1.028772450149462",
        "mean_motion": ".3165158545585929",
        "equinox": "J2000",
        "orbit_class": {
            "orbit_class_type": "AMO",
            "orbit_class_description": "Near-Earth asteroid orbits similar to that of 1221 Amor",
            "orbit_class_range": "1.017 AU < q (perihelion) < 1.3 AU"
        }
    },
    "is_sentry_object": false
}